CCSDS_OMM_VERS = 2.0
CREATION_DATE  = 
ORIGINATOR     = 

OBJECT_NAME    = H-2A R/B
OBJECT_ID      = 2012-025E
CENTER_NAME    = EARTH
REF_FRAME      = TEME
TIME_SYSTEM    = UTC
MEAN_ELEMENT_THEORY = SGP/SGP4

EPOCH          = 2025-10-30T20:22:45.712416
MEAN_MOTION    = 14.93981742
ECCENTRICITY   = .0046317
INCLINATION    = 98.4521
RA_OF_ASC_NODE = 255.8046
ARG_OF_PERICENTER = 19.0884
MEAN_ANOMALY   = 341.2057

EPHEMERIS_TYPE = 0
CLASSIFICATION_TYPE = U
NORAD_CAT_ID   = 38341
ELEMENT_SET_NO = 999
REV_AT_EPOCH   = 72882
BSTAR          = .48551828E-3
MEAN_MOTION_DOT = .5216E-4
MEAN_MOTION_DDOT = 0

CCSDS_OMM_VERS = 2.0
CREATION_DATE  = 
ORIGINATOR     = 

OBJECT_NAME    = SHIJIAN-16 (SJ-16)
OBJECT_ID      = 2013-057A
CENTER_NAME    = EARTH
REF_FRAME      = TEME
TIME_SYSTEM    = UTC
MEAN_ELEMENT_THEORY = SGP/SGP4

EPOCH          = 2025-10-30T22:51:25.363296
MEAN_MOTION    = 14.91748054
ECCENTRICITY   = .00160197
INCLINATION    = 74.9723
RA_OF_ASC_NODE = 70.5961
ARG_OF_PERICENTER = 65.7259
MEAN_ANOMALY   = 294.5600

EPHEMERIS_TYPE = 0
CLASSIFICATION_TYPE = U
NORAD_CAT_ID   = 39358
ELEMENT_SET_NO = 999
REV_AT_EPOCH   = 65215
BSTAR          = .33134106E-3
MEAN_MOTION_DOT = .3318E-4
MEAN_MOTION_DDOT = 0

CCSDS_OMM_VERS = 2.0
CREATION_DATE  = 
ORIGINATOR     = 

OBJECT_NAME    = SL-4 R/B
OBJECT_ID      = 2014-021B
CENTER_NAME    = EARTH
REF_FRAME      = TEME
TIME_SYSTEM    = UTC
MEAN_ELEMENT_THEORY = SGP/SGP4

EPOCH          = 2025-10-30T20:48:07.024608
MEAN_MOTION    = 15.35019781
ECCENTRICITY   = .01050618
INCLINATION    = 51.6071
RA_OF_ASC_NODE = 248.7070
ARG_OF_PERICENTER = 351.7032
MEAN_ANOMALY   = 8.2209

EPHEMERIS_TYPE = 0
CLASSIFICATION_TYPE = U
NORAD_CAT_ID   = 39679
ELEMENT_SET_NO = 999
REV_AT_EPOCH   = 63630
BSTAR          = .579057E-3
MEAN_MOTION_DOT = .23612E-3
MEAN_MOTION_DDOT = 0

CCSDS_OMM_VERS = 2.0
CREATION_DATE  = 
ORIGINATOR     = 

OBJECT_NAME    = ALOS-2
OBJECT_ID      = 2014-029A
CENTER_NAME    = EARTH
REF_FRAME      = TEME
TIME_SYSTEM    = UTC
MEAN_ELEMENT_THEORY = SGP/SGP4

EPOCH          = 2025-10-30T22:21:11.028960
MEAN_MOTION    = 14.79460441
ECCENTRICITY   = .00011472
INCLINATION    = 97.9228
RA_OF_ASC_NODE = 39.3861
ARG_OF_PERICENTER = 99.7046
MEAN_ANOMALY   = 260.4295

EPHEMERIS_TYPE = 0
CLASSIFICATION_TYPE = U
NORAD_CAT_ID   = 39766
ELEMENT_SET_NO = 999
REV_AT_EPOCH   = 61768
BSTAR          = .42739355E-3
MEAN_MOTION_DOT = .3141E-4
MEAN_MOTION_DDOT = 0

CCSDS_OMM_VERS = 2.0
CREATION_DATE  = 
ORIGINATOR     = 

OBJECT_NAME    = YAOGAN-29
OBJECT_ID      = 2015-069A
CENTER_NAME    = EARTH
REF_FRAME      = TEME
TIME_SYSTEM    = UTC
MEAN_ELEMENT_THEORY = SGP/SGP4

EPOCH          = 2025-10-30T23:17:32.850240
MEAN_MOTION    = 14.82810559
ECCENTRICITY   = .00027222
INCLINATION    = 98.0268
RA_OF_ASC_NODE = 326.9950
ARG_OF_PERICENTER = 70.1339
MEAN_ANOMALY   = 290.0167

EPHEMERIS_TYPE = 0
CLASSIFICATION_TYPE = U
NORAD_CAT_ID   = 41038
ELEMENT_SET_NO = 999
REV_AT_EPOCH   = 53665
BSTAR          = .93580501E-4
MEAN_MOTION_DOT = .703E-5
MEAN_MOTION_DDOT = 0

CCSDS_OMM_VERS = 2.0
CREATION_DATE  = 
ORIGINATOR     = 

OBJECT_NAME    = ASTRO-H (HITOMI)
OBJECT_ID      = 2016-012A
CENTER_NAME    = EARTH
REF_FRAME      = TEME
TIME_SYSTEM    = UTC
MEAN_ELEMENT_THEORY = SGP/SGP4

EPOCH          = 2025-10-30T19:57:25.888032
MEAN_MOTION    = 15.08960943
ECCENTRICITY   = .0009834
INCLINATION    = 30.9985
RA_OF_ASC_NODE = 113.9034
ARG_OF_PERICENTER = 106.3070
MEAN_ANOMALY   = 253.8650

EPHEMERIS_TYPE = 0
CLASSIFICATION_TYPE = U
NORAD_CAT_ID   = 41337
ELEMENT_SET_NO = 999
REV_AT_EPOCH   = 53259
BSTAR          = .27634562E-3
MEAN_MOTION_DOT = .4569E-4
MEAN_MOTION_DDOT = 0

CCSDS_OMM_VERS = 2.0
CREATION_DATE  = 
ORIGINATOR     = 

OBJECT_NAME    = HXMT (HUIYAN)
OBJECT_ID      = 2017-034A
CENTER_NAME    = EARTH
REF_FRAME      = TEME
TIME_SYSTEM    = UTC
MEAN_ELEMENT_THEORY = SGP/SGP4

EPOCH          = 2025-10-30T16:46:18.022080
MEAN_MOTION    = 15.15535824
ECCENTRICITY   = .00320627
INCLINATION    = 43.0157
RA_OF_ASC_NODE = 18.3515
ARG_OF_PERICENTER = 135.3062
MEAN_ANOMALY   = 225.0377

EPHEMERIS_TYPE = 0
CLASSIFICATION_TYPE = U
NORAD_CAT_ID   = 42758
ELEMENT_SET_NO = 999
REV_AT_EPOCH   = 46280
BSTAR          = .43193304E-3
MEAN_MOTION_DOT = .8213E-4
MEAN_MOTION_DDOT = 0

CCSDS_OMM_VERS = 2.0
CREATION_DATE  = 
ORIGINATOR     = 

OBJECT_NAME    = CZ-2C R/B
OBJECT_ID      = 2018-054D
CENTER_NAME    = EARTH
REF_FRAME      = TEME
TIME_SYSTEM    = UTC
MEAN_ELEMENT_THEORY = SGP/SGP4

EPOCH          = 2025-10-30T12:59:50.220672
MEAN_MOTION    = 15.65055924
ECCENTRICITY   = .00254002
INCLINATION    = 35.1347
RA_OF_ASC_NODE = 111.7831
ARG_OF_PERICENTER = 84.6278
MEAN_ANOMALY   = 275.7349

EPHEMERIS_TYPE = 0
CLASSIFICATION_TYPE = U
NORAD_CAT_ID   = 43521
ELEMENT_SET_NO = 999
REV_AT_EPOCH   = 40826
BSTAR          = .81951204E-3
MEAN_MOTION_DOT = .85755E-3
MEAN_MOTION_DDOT = 0

CCSDS_OMM_VERS = 2.0
CREATION_DATE  = 
ORIGINATOR     = 

OBJECT_NAME    = SAOCOM 1A
OBJECT_ID      = 2018-076A
CENTER_NAME    = EARTH
REF_FRAME      = TEME
TIME_SYSTEM    = UTC
MEAN_ELEMENT_THEORY = SGP/SGP4

EPOCH          = 2025-10-30T22:30:18.533664
MEAN_MOTION    = 14.82140781
ECCENTRICITY   = .00013316
INCLINATION    = 97.8874
RA_OF_ASC_NODE = 128.9787
ARG_OF_PERICENTER = 90.7426
MEAN_ANOMALY   = 269.3940

EPHEMERIS_TYPE = 0
CLASSIFICATION_TYPE = U
NORAD_CAT_ID   = 43641
ELEMENT_SET_NO = 999
REV_AT_EPOCH   = 38214
BSTAR          = .12734917E-3
MEAN_MOTION_DOT = .961E-5
MEAN_MOTION_DDOT = 0

CCSDS_OMM_VERS = 2.0
CREATION_DATE  = 
ORIGINATOR     = 

OBJECT_NAME    = H-2A R/B
OBJECT_ID      = 2018-084L
CENTER_NAME    = EARTH
REF_FRAME      = TEME
TIME_SYSTEM    = UTC
MEAN_ELEMENT_THEORY = SGP/SGP4

EPOCH          = 2025-10-30T12:14:48.604992
MEAN_MOTION    = 15.35265563
ECCENTRICITY   = .00294174
INCLINATION    = 98.8819
RA_OF_ASC_NODE = 128.7042
ARG_OF_PERICENTER = 112.7677
MEAN_ANOMALY   = 247.6675

EPHEMERIS_TYPE = 0
CLASSIFICATION_TYPE = U
NORAD_CAT_ID   = 43682
ELEMENT_SET_NO = 999
REV_AT_EPOCH   = 38576
BSTAR          = .7247282E-3
MEAN_MOTION_DOT = .25119E-3
MEAN_MOTION_DDOT = 0

CCSDS_OMM_VERS = 2.0
CREATION_DATE  = 
ORIGINATOR     = 

OBJECT_NAME    = SAOCOM 1B
OBJECT_ID      = 2020-059A
CENTER_NAME    = EARTH
REF_FRAME      = TEME
TIME_SYSTEM    = UTC
MEAN_ELEMENT_THEORY = SGP/SGP4

EPOCH          = 2025-10-30T23:15:21.130848
MEAN_MOTION    = 14.82164353
ECCENTRICITY   = .00013553
INCLINATION    = 97.8863
RA_OF_ASC_NODE = 128.1125
ARG_OF_PERICENTER = 88.2852
MEAN_ANOMALY   = 271.8517

EPHEMERIS_TYPE = 0
CLASSIFICATION_TYPE = U
NORAD_CAT_ID   = 46265
ELEMENT_SET_NO = 999
REV_AT_EPOCH   = 27953
BSTAR          = .94518793E-4
MEAN_MOTION_DOT = .7E-5
MEAN_MOTION_DDOT = 0

CCSDS_OMM_VERS = 2.0
CREATION_DATE  = 
ORIGINATOR     = 

OBJECT_NAME    = CSS (TIANHE)
OBJECT_ID      = 2021-035A
CENTER_NAME    = EARTH
REF_FRAME      = TEME
TIME_SYSTEM    = UTC
MEAN_ELEMENT_THEORY = SGP/SGP4

EPOCH          = 2025-10-30T22:26:57.736608
MEAN_MOTION    = 15.60047661
ECCENTRICITY   = .00068817
INCLINATION    = 41.4662
RA_OF_ASC_NODE = 276.6926
ARG_OF_PERICENTER = 296.8606
MEAN_ANOMALY   = 63.1529

EPHEMERIS_TYPE = 0
CLASSIFICATION_TYPE = U
NORAD_CAT_ID   = 48274
ELEMENT_SET_NO = 999
REV_AT_EPOCH   = 25734
BSTAR          = .50765241E-3
MEAN_MOTION_DOT = .4223E-3
MEAN_MOTION_DDOT = 0

