H-2A R/B                
1 38341U 12025E   25303.84914019  .00005216  00000+0  48552-3 0  9998
2 38341  98.4521 255.8046 0046317  19.0884 341.2057 14.93981742728828
SHIJIAN-16 (SJ-16)      
1 39358U 13057A   25303.95237689  .00003318  00000+0  33134-3 0  9997
2 39358  74.9723  70.5961 0016019  65.7259 294.5600 14.91748054652159
SL-4 R/B                
1 39679U 14021B   25303.86674797  .00023612  00000+0  57906-3 0  9992
2 39679  51.6071 248.7070 0105061 351.7032   8.2209 15.35019781636307
ALOS-2                  
1 39766U 14029A   25303.93137765  .00003141  00000+0  42739-3 0  9997
2 39766  97.9228  39.3861 0001147  99.7046 260.4295 14.79460441617684
YAOGAN-29               
1 41038U 15069A   25303.97051910  .00000703  00000+0  93581-4 0  9991
2 41038  98.0268 326.9950 0002722  70.1339 290.0167 14.82810559536654
ASTRO-H (HITOMI)        
1 41337U 16012A   25303.83154963  .00004569  00000+0  27635-3 0  9999
2 41337  30.9985 113.9034 0009834 106.3070 253.8650 15.08960943532594
HXMT (HUIYAN)           
1 42758U 17034A   25303.69881970  .00008213  00000+0  43193-3 0  9998
2 42758  43.0157  18.3515 0032062 135.3062 225.0377 15.15535824462809
CZ-2C R/B               
1 43521U 18054D   25303.54155348  .00085755  00000+0  81951-3 0  9997
2 43521  35.1347 111.7831 0025400  84.6278 275.7349 15.65055924408267
SAOCOM 1A               
1 43641U 18076A   25303.93771451  .00000961  00000+0  12735-3 0  9996
2 43641  97.8874 128.9787 0001331  90.7426 269.3940 14.82140781382148
H-2A R/B                
1 43682U 18084L   25303.51028478  .00025119  00000+0  72473-3 0  9995
2 43682  98.8819 128.7042 0029417 112.7677 247.6675 15.35265563385763
SAOCOM 1B               
1 46265U 20059A   25303.96899457  .00000700  00000+0  94519-4 0  9997
2 46265  97.8863 128.1125 0001355  88.2852 271.8517 14.82164353279537
CSS (TIANHE)            
1 48274U 21035A   25303.93539047  .00042230  00000+0  50765-3 0  9995
2 48274  41.4662 276.6926 0006881 296.8606  63.1529 15.60047661257341
